OBJECT_NAME,OBJECT_ID,EPOCH,MEAN_MOTION,ECCENTRICITY,INCLINATION,RA_OF_ASC_NODE,ARG_OF_PERICENTER,MEAN_ANOMALY,EPHEMERIS_TYPE,CLASSIFICATION_TYPE,NORAD_CAT_ID,ELEMENT_SET_NO,REV_AT_EPOCH,BSTAR,MEAN_MOTION_DOT,MEAN_MOTION_DDOT
GALAXY 34 (G-34),2022-128B,2026-06-16T17:32:07.029024,1.00275753,.0001547,0.0271,1.5825,103.0523,294.4009,0,U,54027,999,1390,0,0,0
ANGOSAT 2,2022-131A,2026-06-16T16:32:43.238976,1.00271566,.0000694,0.0287,79.0820,34.5090,62.5419,0,U,54033,999,1347,0,.133E-5,0
EUTELSAT HOTBIRD 13F,2022-134A,2026-06-15T13:07:14.323584,1.00270937,.00022445,0.0519,292.7335,60.0843,120.8350,0,U,54048,999,1336,0,.89E-6,0
LDPE-2,2022-144A,2026-06-17T10:59:02.688864,1.00532319,.000182,5.6144,63.6516,103.2842,106.3014,0,U,54219,999,1184,0,.121E-5,0
EUTELSAT HOTBIRD 13G,2022-146A,2026-06-15T13:07:14.323584,1.00269766,.00017055,0.0509,232.5107,316.5388,284.5981,0,U,54225,999,745,0,.89E-6,0
ZHONGXING-19,2022-148A,2026-06-16T18:55:21.908064,1.00271492,.000232,0.0186,29.1015,82.3702,240.6108,0,U,54230,999,1337,0,-.84E-6,0
GALAXY 31 (G-31),2022-153A,2026-06-17T07:34:15.367296,1.00271162,.000104,0.0133,48.6021,27.9435,181.5754,0,U,54243,999,713,0,.9E-7,0
GALAXY 32 (G-32),2022-153B,2026-06-14T22:56:24.476640,1.00491998,.0015287,0.0165,349.6788,254.3091,272.5395,0,U,54244,999,1312,0,-.197E-5,0
EUTELSAT 10B,2022-157A,2026-06-16T18:11:45.577824,1.00266425,.000121,0.0651,98.2762,13.0838,76.5948,0,U,54259,999,1302,0,.65E-6,0
GALAXY 35 (G-35),2022-170A,2026-06-17T03:01:16.973760,1.00270063,.0001862,0.0176,53.5182,33.3250,130.7427,0,U,54741,999,1289,0,-.166E-5,0
GALAXY 36 (G-36),2022-170B,2026-06-16T14:17:58.327872,1.00270255,.0002502,0.0179,256.2701,187.9042,306.1810,0,U,54742,999,1276,0,-.187E-5,0
METEOSAT-12 (MTG-I1),2022-170C,2026-06-16T19:51:24.297984,1.00272521,.0003158,0.7382,22.9365,71.4337,108.1588,0,U,54743,999,1297,0,-.11E-6,0
SHIJIAN-23 (SJ-23),2023-002A,2026-06-16T18:28:35.689728,1.00087661,.0003813,3.7169,78.3181,272.2533,339.9981,0,U,55131,999,1250,0,-.253E-5,0
APSTAR-6E,2023-005A,2026-06-15T17:07:09.418944,1.00268070,.00011143,0.0372,251.5524,313.0083,90.2366,0,U,55239,999,1867,0,-.316E-5,0
USA 342,2023-008A,2026-06-15T08:02:26.115936,1.00270392,.0000187,0.0090,64.0068,223.8693,120.1932,0,U,55263,999,1249,0,.142E-5,0
LDPE-3A,2023-008B,2026-06-16T14:13:06.295008,0.99144694,.0001089,2.3467,81.6702,64.6813,225.1648,0,U,55264,999,1180,0,.38E-6,0
ELEKTRO-L 4,2023-016A,2026-06-15T19:20:26.001600,1.00270697,.0000776,0.0734,164.8322,9.0006,186.1645,0,U,55506,999,1232,0,-.57E-6,0
AMAZONAS NEXUS,2023-017A,2026-06-15T12:46:16.334400,1.00267577,.00049166,0.0383,35.9590,30.4729,327.9525,0,U,55508,999,702,0,-.28E-5,0
ZHONGXING-26,2023-023A,2026-06-16T18:44:30.448608,1.00271639,.0003266,0.0665,70.0780,19.8711,221.3541,0,U,55686,999,1222,0,-.356E-5,0
LUCH-5X (OLYMP-K 2),2023-031A,2026-06-16T09:53:06.628992,1.00272047,.0000697,0.0272,60.8842,146.7793,267.2814,0,U,55841,999,1193,0,.32E-6,0
GAOFEN-13 02,2023-036A,2026-06-16T14:23:30.839136,1.00270520,.0004144,1.0203,1.0845,335.5239,292.4346,0,U,55912,999,1208,0,-.221E-5,0
SES-18,2023-038A,2026-06-17T07:53:03.225984,1.00270440,.000016,0.0215,292.9811,318.0341,29.7261,0,U,55970,999,1210,0,-.105E-5,0
SES-19,2023-038B,2026-06-17T11:15:16.415136,1.00271589,.0001413,0.0112,11.5687,70.2724,217.7972,0,U,55971,999,1209,0,.83E-6,0
INTELSAT 40E (IS-40E),2023-052A,2026-06-17T04:00:28.920960,1.00270529,.0002014,0.0175,61.1054,66.2699,107.1649,0,U,56174,999,1182,0,-.178E-5,0
VIASAT-3 F1,2023-060A,2026-06-16T16:00:16.349760,1.00270750,.0001093,0.0244,342.0129,97.9977,336.0276,0,U,56370,999,1142,0,0,0
ARCTURUS,2023-060B,2026-06-16T22:51:22.920768,1.00272378,.0002559,2.7748,79.9563,49.6160,190.9835,0,U,56371,999,1145,0,-.68E-6,0
GS-1,2023-060C,2026-06-14T21:58:38.193312,1.00275284,.0003785,2.7203,79.8626,282.6047,319.7725,0,U,56372,999,751,0,-.221E-5,0
BEIDOU-3 G4,2023-066A,2026-06-17T05:35:42.704160,1.00273644,.0004321,0.4866,331.5139,181.0756,336.8582,0,U,56564,999,1139,0,-.285E-5,0
ARABSAT-7B (BADR-8),2023-075A,2026-06-15T04:37:42.665952,1.00270389,.00043798,0.0785,30.3075,352.7494,335.8524,0,U,56757,999,1109,0,.148E-5,0
NVS-01 (IRNSS-1J),2023-076A,2026-06-16T20:28:29.969760,1.00264842,.0003179,2.1664,244.3634,36.2189,61.1146,0,U,56759,999,1111,0,-.338E-5,0
NUSANTARA TIGA (SATRIA),2023-086A,2026-06-15T12:28:38.731008,1.00267948,.00031793,0.0355,352.3654,355.6095,248.9867,0,U,57045,999,974,0,-.233E-5,0
